{
  "generated_at": "2025-08-16T13:20:21.354354",
  "source": "LEO_Phase1_System",
  "satellites": [
    {
      "norad_id": 45430,
      "name": "ONEWEB-45430",
      "elevation_deg": 46.9,
      "azimuth_deg": 180.0,
      "distance_km": 7000.0,
      "line1": "1 44713U 19074A   25227.50000000  .00001234  00000-0  12345-3 0  9990",
      "line2": "2 44713  87.9000 123.4567 0001234  12.3456 347.6543 13.20000000123456",
      "ecef_x_km": null,
      "ecef_y_km": null,
      "ecef_z_km": null,
      "constellation": "ONEWEB",
      "leo_visibility_analysis": {
        "total_visible_time_minutes": 35.0,
        "max_elevation_deg": 46.9,
        "visible_passes_count": 1,
        "avg_pass_duration_minutes": 35.0,
        "signal_strength_estimate_dbm": -60.65,
        "best_elevation_time": "2025-08-16T14:04:31.110522+00:00"
      },
      "leo_total_score": 79.48,
      "leo_visible_time_minutes": 35.0
    },
    {
      "norad_id": 45432,
      "name": "ONEWEB-45432",
      "elevation_deg": 41.84,
      "azimuth_deg": 180.0,
      "distance_km": 7000.0,
      "line1": "1 44713U 19074A   25227.50000000  .00001234  00000-0  12345-3 0  9990",
      "line2": "2 44713  87.9000 123.4567 0001234  12.3456 347.6543 13.20000000123456",
      "ecef_x_km": null,
      "ecef_y_km": null,
      "ecef_z_km": null,
      "constellation": "ONEWEB",
      "leo_visibility_analysis": {
        "total_visible_time_minutes": 34.5,
        "max_elevation_deg": 41.84,
        "visible_passes_count": 1,
        "avg_pass_duration_minutes": 34.5,
        "signal_strength_estimate_dbm": -61.67,
        "best_elevation_time": "2025-08-16T14:18:01.110522+00:00"
      },
      "leo_total_score": 78.31,
      "leo_visible_time_minutes": 34.5
    },
    {
      "norad_id": 45136,
      "name": "ONEWEB-45136",
      "elevation_deg": 55.29,
      "azimuth_deg": 180.0,
      "distance_km": 7000.0,
      "line1": "1 44713U 19074A   25227.50000000  .00001234  00000-0  12345-3 0  9990",
      "line2": "2 44713  87.9000 123.4567 0001234  12.3456 347.6543 13.20000000123456",
      "ecef_x_km": null,
      "ecef_y_km": null,
      "ecef_z_km": null,
      "constellation": "ONEWEB",
      "leo_visibility_analysis": {
        "total_visible_time_minutes": 35.5,
        "max_elevation_deg": 55.29,
        "visible_passes_count": 1,
        "avg_pass_duration_minutes": 35.5,
        "signal_strength_estimate_dbm": -59.2,
        "best_elevation_time": "2025-08-16T14:01:31.110522+00:00"
      },
      "leo_total_score": 81.21,
      "leo_visible_time_minutes": 35.5
    },
    {
      "norad_id": 45131,
      "name": "ONEWEB-45131",
      "elevation_deg": 69.88,
      "azimuth_deg": 180.0,
      "distance_km": 7000.0,
      "line1": "1 44713U 19074A   25227.50000000  .00001234  00000-0  12345-3 0  9990",
      "line2": "2 44713  87.9000 123.4567 0001234  12.3456 347.6543 13.20000000123456",
      "ecef_x_km": null,
      "ecef_y_km": null,
      "ecef_z_km": null,
      "constellation": "ONEWEB",
      "leo_visibility_analysis": {
        "total_visible_time_minutes": 26.0,
        "max_elevation_deg": 69.88,
        "visible_passes_count": 2,
        "avg_pass_duration_minutes": 13.0,
        "signal_strength_estimate_dbm": -59.29,
        "best_elevation_time": "2025-08-16T13:05:31.110522+00:00"
      },
      "leo_total_score": 77.31,
      "leo_visible_time_minutes": 26.0
    },
    {
      "norad_id": 45132,
      "name": "ONEWEB-45132",
      "elevation_deg": 54.25,
      "azimuth_deg": 180.0,
      "distance_km": 7000.0,
      "line1": "1 44713U 19074A   25227.50000000  .00001234  00000-0  12345-3 0  9990",
      "line2": "2 44713  87.9000 123.4567 0001234  12.3456 347.6543 13.20000000123456",
      "ecef_x_km": null,
      "ecef_y_km": null,
      "ecef_z_km": null,
      "constellation": "ONEWEB",
      "leo_visibility_analysis": {
        "total_visible_time_minutes": 35.5,
        "max_elevation_deg": 54.25,
        "visible_passes_count": 1,
        "avg_pass_duration_minutes": 35.5,
        "signal_strength_estimate_dbm": -59.38,
        "best_elevation_time": "2025-08-16T14:07:31.110522+00:00"
      },
      "leo_total_score": 81.04,
      "leo_visible_time_minutes": 35.5
    },
    {
      "norad_id": 44062,
      "name": "ONEWEB-44062",
      "elevation_deg": 48.93,
      "azimuth_deg": 180.0,
      "distance_km": 7000.0,
      "line1": "1 44713U 19074A   25227.50000000  .00001234  00000-0  12345-3 0  9990",
      "line2": "2 44713  87.9000 123.4567 0001234  12.3456 347.6543 13.20000000123456",
      "ecef_x_km": null,
      "ecef_y_km": null,
      "ecef_z_km": null,
      "constellation": "ONEWEB",
      "leo_visibility_analysis": {
        "total_visible_time_minutes": 35.0,
        "max_elevation_deg": 48.93,
        "visible_passes_count": 1,
        "avg_pass_duration_minutes": 35.0,
        "signal_strength_estimate_dbm": -60.16,
        "best_elevation_time": "2025-08-16T13:30:31.110522+00:00"
      },
      "leo_total_score": 79.82,
      "leo_visible_time_minutes": 35.0
    },
    {
      "norad_id": 45149,
      "name": "ONEWEB-45149",
      "elevation_deg": 61.75,
      "azimuth_deg": 180.0,
      "distance_km": 7000.0,
      "line1": "1 44713U 19074A   25227.50000000  .00001234  00000-0  12345-3 0  9990",
      "line2": "2 44713  87.9000 123.4567 0001234  12.3456 347.6543 13.20000000123456",
      "ecef_x_km": null,
      "ecef_y_km": null,
      "ecef_z_km": null,
      "constellation": "ONEWEB",
      "leo_visibility_analysis": {
        "total_visible_time_minutes": 36.0,
        "max_elevation_deg": 61.75,
        "visible_passes_count": 1,
        "avg_pass_duration_minutes": 36.0,
        "signal_strength_estimate_dbm": -58.45,
        "best_elevation_time": "2025-08-16T13:33:31.110522+00:00"
      },
      "leo_total_score": 82.62,
      "leo_visible_time_minutes": 36.0
    },
    {
      "norad_id": 45161,
      "name": "ONEWEB-45161",
      "elevation_deg": 59.35,
      "azimuth_deg": 180.0,
      "distance_km": 7000.0,
      "line1": "1 44713U 19074A   25227.50000000  .00001234  00000-0  12345-3 0  9990",
      "line2": "2 44713  87.9000 123.4567 0001234  12.3456 347.6543 13.20000000123456",
      "ecef_x_km": null,
      "ecef_y_km": null,
      "ecef_z_km": null,
      "constellation": "ONEWEB",
      "leo_visibility_analysis": {
        "total_visible_time_minutes": 36.0,
        "max_elevation_deg": 59.35,
        "visible_passes_count": 1,
        "avg_pass_duration_minutes": 36.0,
        "signal_strength_estimate_dbm": -58.81,
        "best_elevation_time": "2025-08-16T13:42:31.110522+00:00"
      },
      "leo_total_score": 82.22,
      "leo_visible_time_minutes": 36.0
    },
    {
      "norad_id": 45156,
      "name": "ONEWEB-45156",
      "elevation_deg": 57.05,
      "azimuth_deg": 180.0,
      "distance_km": 7000.0,
      "line1": "1 44713U 19074A   25227.50000000  .00001234  00000-0  12345-3 0  9990",
      "line2": "2 44713  87.9000 123.4567 0001234  12.3456 347.6543 13.20000000123456",
      "ecef_x_km": null,
      "ecef_y_km": null,
      "ecef_z_km": null,
      "constellation": "ONEWEB",
      "leo_visibility_analysis": {
        "total_visible_time_minutes": 35.5,
        "max_elevation_deg": 57.05,
        "visible_passes_count": 1,
        "avg_pass_duration_minutes": 35.5,
        "signal_strength_estimate_dbm": -58.95,
        "best_elevation_time": "2025-08-16T13:52:31.110522+00:00"
      },
      "leo_total_score": 81.51,
      "leo_visible_time_minutes": 35.5
    },
    {
      "norad_id": 45154,
      "name": "ONEWEB-45154",
      "elevation_deg": 55.71,
      "azimuth_deg": 180.0,
      "distance_km": 7000.0,
      "line1": "1 44713U 19074A   25227.50000000  .00001234  00000-0  12345-3 0  9990",
      "line2": "2 44713  87.9000 123.4567 0001234  12.3456 347.6543 13.20000000123456",
      "ecef_x_km": null,
      "ecef_y_km": null,
      "ecef_z_km": null,
      "constellation": "ONEWEB",
      "leo_visibility_analysis": {
        "total_visible_time_minutes": 35.5,
        "max_elevation_deg": 55.71,
        "visible_passes_count": 1,
        "avg_pass_duration_minutes": 35.5,
        "signal_strength_estimate_dbm": -59.19,
        "best_elevation_time": "2025-08-16T13:59:31.110522+00:00"
      },
      "leo_total_score": 81.29,
      "leo_visible_time_minutes": 35.5
    },
    {
      "norad_id": 45429,
      "name": "ONEWEB-45429",
      "elevation_deg": 45.61,
      "azimuth_deg": 180.0,
      "distance_km": 7000.0,
      "line1": "1 44713U 19074A   25227.50000000  .00001234  00000-0  12345-3 0  9990",
      "line2": "2 44713  87.9000 123.4567 0001234  12.3456 347.6543 13.20000000123456",
      "ecef_x_km": null,
      "ecef_y_km": null,
      "ecef_z_km": null,
      "constellation": "ONEWEB",
      "leo_visibility_analysis": {
        "total_visible_time_minutes": 35.0,
        "max_elevation_deg": 45.61,
        "visible_passes_count": 1,
        "avg_pass_duration_minutes": 35.0,
        "signal_strength_estimate_dbm": -60.86,
        "best_elevation_time": "2025-08-16T14:19:31.110522+00:00"
      },
      "leo_total_score": 79.27,
      "leo_visible_time_minutes": 35.0
    }
  ],
  "statistics": {
    "total_satellites": 100,
    "starlink_count": 50,
    "oneweb_count": 50,
    "avg_elevation": 44.263000000000005,
    "max_elevation": 86.11
  }
}